[
    {
        "Altitude(m)": 610405.339329147,
        "Argument of Periapsis(deg)": 0.0,
        "Eccentricity": 0.0,
        "Inclination(deg)": 60.0,
        "Latitude(deg)": 52.111316536011074,
        "Longitude(deg)": 52.47733313442236,
        "Mean Anomaly(deg)": 114.54549999999999,
        "RAAN(deg)": 20.0,
        "Satellite Name": "Test1 95",
        "Satellite Number": 95,
        "Semi-Major Axis(m)": 6980739.136638005,
        "Time(s)": 0
    },
    {
        "Altitude(m)": 610321.912680631,
        "Argument of Periapsis(deg)": 0.00010418945913296404,
        "Eccentricity": 0.0,
        "Inclination(deg)": 60.0,
        "Latitude(deg)": 51.74603240123884,
        "Longitude(deg)": 53.24622883685964,
        "Mean Anomaly(deg)": 115.16560614546184,
        "RAAN(deg)": 19.99957995086026,
        "Satellite Name": "Test1 95",
        "Satellite Number": 95,
        "Semi-Major Axis(m)": 6980739.136638005,
        "Time(s)": 10
    }
]